{"type": "FeatureCollection", "features": [ {"type": "Feature", "properties": {"norad_id": 40534, "name": "GPS BIIF-9  (PRN 26)", "group": "gps-ops", "lat": 4.10242163137628, "lon": 28.28225826693779, "alt_km": 20386.186799357016, "timestamp": "2025-12-25T19:00:39.609686+00:00", "meta": {"OBJECT_NAME": "GPS BIIF-9  (PRN 26)", "OBJECT_ID": "2015-013A", "EPOCH": "2025-12-24T13:19:21.575712", "MEAN_MOTION": 2.00561869, "ECCENTRICITY": 0.01074881, "INCLINATION": 53.1961, "RA_OF_ASC_NODE": 211.4008, "ARG_OF_PERICENTER": 38.768, "MEAN_ANOMALY": 322.0719, "EPHEMERIS_TYPE": 0, "CLASSIFICATION_TYPE": "U", "NORAD_CAT_ID": 40534, "ELEMENT_SET_NO": 999, "REV_AT_EPOCH": 7832, "BSTAR": 0, "MEAN_MOTION_DOT": 7.7e-07, "MEAN_MOTION_DDOT": 0}, "tle": {"line1": "1 40534U 15013A   25358.55511083  .00000077  00000+0  00000+0 0  9999", "line2": "2 40534  53.1961 211.4008 0107488  38.7680 322.0719  2.00561869 78320"}}, "geometry": {"type": "Point", "coordinates": [28.28225826693779, 4.10242163137628]}}, {"type": "Feature", "properties": {"norad_id": 40730, "name": "GPS BIIF-10 (PRN 08)", "group": "gps-ops", "lat": 43.422589647053904, "lon": -42.597847948015286, "alt_km": 19921.40499488498, "timestamp": "2025-12-25T19:00:39.609697+00:00", "meta": {"OBJECT_NAME": "GPS BIIF-10 (PRN 08)", "OBJECT_ID": "2015-033A", "EPOCH": "2025-12-24T17:11:33.292320", "MEAN_MOTION": 2.00564999, "ECCENTRICITY": 0.0111668, "INCLINATION": 54.1203, "RA_OF_ASC_NODE": 274.2801, "ARG_OF_PERICENTER": 27.125, "MEAN_ANOMALY": 333.5048, "EPHEMERIS_TYPE": 0, "CLASSIFICATION_TYPE": "U", "NORAD_CAT_ID": 40730, "ELEMENT_SET_NO": 999, "REV_AT_EPOCH": 7649, "BSTAR": 0, "MEAN_MOTION_DOT": -1.6e-07, "MEAN_MOTION_DDOT": 0}, "tle": {"line1": "1 40730U 15033A   25358.71635755 -.00000016  00000+0  00000+0 0  9994", "line2": "2 40730  54.1203 274.2801 0111668  27.1250 333.5048  2.00564999 76491"}}, "geometry": {"type": "Point", "coordinates": [-42.597847948015286, 43.422589647053904]}}, {"type": "Feature", "properties": {"norad_id": 41019, "name": "GPS BIIF-11 (PRN 10)", "group": "gps-ops", "lat": 11.414909397368973, "lon": 45.094155707479594, "alt_km": 20416.711742927797, "timestamp": "2025-12-25T19:00:39.609709+00:00", "meta": {"OBJECT_NAME": "GPS BIIF-11 (PRN 10)", "OBJECT_ID": "2015-062A", "EPOCH": "2025-12-23T18:41:09.894336", "MEAN_MOTION": 2.00567076, "ECCENTRICITY": 0.0111091, "INCLINATION": 56.8401, "RA_OF_ASC_NODE": 37.5754, "ARG_OF_PERICENTER": 230.2279, "MEAN_ANOMALY": 128.8532, "EPHEMERIS_TYPE": 0, "CLASSIFICATION_TYPE": "U", "NORAD_CAT_ID": 41019, "ELEMENT_SET_NO": 999, "REV_AT_EPOCH": 7431, "BSTAR": 0, "MEAN_MOTION_DOT": -4.7e-07, "MEAN_MOTION_DDOT": 0}, "tle": {"line1": "1 41019U 15062A   25357.77858674 -.00000047  00000+0  00000+0 0  9993", "line2": "2 41019  56.8401  37.5754 0111091 230.2279 128.8532  2.00567076 74317"}}, "geometry": {"type": "Point", "coordinates": [45.094155707479594, 11.414909397368973]}}, {"type": "Feature", "properties": {"norad_id": 41328, "name": "GPS BIIF-12 (PRN 32)", "group": "gps-ops", "lat": -36.24154093807859, "lon": 66.0089335030851, "alt_km": 20101.94180591341, "timestamp": "2025-12-25T19:00:39.609736+00:00", "meta": {"OBJECT_NAME": "GPS BIIF-12 (PRN 32)", "OBJECT_ID": "2016-007A", "EPOCH": "2025-12-24T08:38:21.777792", "MEAN_MOTION": 2.00560136, "ECCENTRICITY": 0.00927395, "INCLINATION": 55.4125, "RA_OF_ASC_NODE": 96.3958, "ARG_OF_PERICENTER": 243.8734, "MEAN_ANOMALY": 115.1833, "EPHEMERIS_TYPE": 0, "CLASSIFICATION_TYPE": "U", "NORAD_CAT_ID": 41328, "ELEMENT_SET_NO": 999, "REV_AT_EPOCH": 7233, "BSTAR": 0, "MEAN_MOTION_DOT": 1.2e-07, "MEAN_MOTION_DDOT": 0}, "tle": {"line1": "1 41328U 16007A   25358.35997428  .00000012  00000+0  00000+0 0  9993", "line2": "2 41328  55.4125  96.3958 0092739 243.8734 115.1833  2.00560136 72333"}}, "geometry": {"type": "Point", "coordinates": [66.0089335030851, -36.24154093807859]}}, {"type": "Feature", "properties": {"norad_id": 43873, "name": "GPS BIII-1  (PRN 04)", "group": "gps-ops", "lat": -22.448253777957408, "lon": -64.5267085248797, "alt_km": 20088.26002138752, "timestamp": "2025-12-25T19:00:39.609749+00:00", "meta": {"OBJECT_NAME": "GPS BIII-1  (PRN 04)", "OBJECT_ID": "2018-109A", "EPOCH": "2025-12-24T12:17:00.757248", "MEAN_MOTION": 2.00553945, "ECCENTRICITY": 0.00376159, "INCLINATION": 55.5731, "RA_OF_ASC_NODE": 99.0827, "ARG_OF_PERICENTER": 195.5593, "MEAN_ANOMALY": 167.4766, "EPHEMERIS_TYPE": 0, "CLASSIFICATION_TYPE": "U", "NORAD_CAT_ID": 43873, "ELEMENT_SET_NO": 999, "REV_AT_EPOCH": 5157, "BSTAR": 0, "MEAN_MOTION_DOT": 1.7e-07, "MEAN_MOTION_DDOT": 0}, "tle": {"line1": "1 43873U 18109A   25358.51181432  .00000017  00000+0  00000+0 0  9998", "line2": "2 43873  55.5731  99.0827 0037615 195.5593 167.4766  2.00553945 51575"}}, "geometry": {"type": "Point", "coordinates": [-64.5267085248797, -22.448253777957408]}}, {"type": "Feature", "properties": {"norad_id": 44506, "name": "GPS BIII-2  (PRN 18)", "group": "gps-ops", "lat": 53.176216787267066, "lon": 92.41030568819491, "alt_km": 20186.40434205132, "timestamp": "2025-12-25T19:00:39.609761+00:00", "meta": {"OBJECT_NAME": "GPS BIII-2  (PRN 18)", "OBJECT_ID": "2019-056A", "EPOCH": "2025-12-25T04:27:47.883168", "MEAN_MOTION": 2.00566525, "ECCENTRICITY": 0.00577677, "INCLINATION": 55.7168, "RA_OF_ASC_NODE": 338.0593, "ARG_OF_PERICENTER": 198.6492, "MEAN_ANOMALY": 188.635, "EPHEMERIS_TYPE": 0, "CLASSIFICATION_TYPE": "U", "NORAD_CAT_ID": 44506, "ELEMENT_SET_NO": 999, "REV_AT_EPOCH": 4658, "BSTAR": 0, "MEAN_MOTION_DOT": -5.9e-07, "MEAN_MOTION_DDOT": 0}, "tle": {"line1": "1 44506U 19056A   25359.18597087 -.00000059  00000+0  00000+0 0  9992", "line2": "2 44506  55.7168 338.0593 0057767 198.6492 188.6350  2.00566525 46580"}}, "geometry": {"type": "Point", "coordinates": [92.41030568819491, 53.176216787267066]}}, {"type": "Feature", "properties": {"norad_id": 45854, "name": "GPS BIII-3  (PRN 23)", "group": "gps-ops", "lat": 38.64398125647489, "lon": 67.57727664995984, "alt_km": 20324.057193154676, "timestamp": "2025-12-25T19:00:39.609772+00:00", "meta": {"OBJECT_NAME": "GPS BIII-3  (PRN 23)", "OBJECT_ID": "2020-041A", "EPOCH": "2025-12-24T07:36:15.586848", "MEAN_MOTION": 2.00561688, "ECCENTRICITY": 0.00606528, "INCLINATION": 56.5546, "RA_OF_ASC_NODE": 35.7353, "ARG_OF_PERICENTER": 203.7393, "MEAN_ANOMALY": 219.8521, "EPHEMERIS_TYPE": 0, "CLASSIFICATION_TYPE": "U", "NORAD_CAT_ID": 45854, "ELEMENT_SET_NO": 999, "REV_AT_EPOCH": 4053, "BSTAR": 0, "MEAN_MOTION_DOT": -4.9e-07, "MEAN_MOTION_DDOT": 0}, "tle": {"line1": "1 45854U 20041A   25358.31684707 -.00000049  00000+0  00000+0 0  9994", "line2": "2 45854  56.5546  35.7353 0060652 203.7393 219.8521  2.00561688 40537"}}, "geometry": {"type": "Point", "coordinates": [67.57727664995984, 38.64398125647489]}}, {"type": "Feature", "properties": {"norad_id": 46826, "name": "GPS BIII-4  (PRN 14)", "group": "gps-ops", "lat": 16.15287386213924, "lon": -130.0281543668505, "alt_km": 20352.05123597484, "timestamp": "2025-12-25T19:00:39.609784+00:00", "meta": {"OBJECT_NAME": "GPS BIII-4  (PRN 14)", "OBJECT_ID": "2020-078A", "EPOCH": "2025-12-16T01:06:13.902336", "MEAN_MOTION": 2.00566891, "ECCENTRICITY": 0.0064754, "INCLINATION": 54.0144, "RA_OF_ASC_NODE": 218.2068, "ARG_OF_PERICENTER": 203.3802, "MEAN_ANOMALY": 339.3962, "EPHEMERIS_TYPE": 0, "CLASSIFICATION_TYPE": "U", "NORAD_CAT_ID": 46826, "ELEMENT_SET_NO": 999, "REV_AT_EPOCH": 3783, "BSTAR": 0, "MEAN_MOTION_DOT": 6.7e-07, "MEAN_MOTION_DDOT": 0}, "tle": {"line1": "1 46826U 20078A   25350.04599424  .00000067  00000+0  00000+0 0  9996", "line2": "2 46826  54.0144 218.2068 0064754 203.3802 339.3962  2.00566891 37830"}}, "geometry": {"type": "Point", "coordinates": [-130.0281543668505, 16.15287386213924]}}, {"type": "Feature", "properties": {"norad_id": 48859, "name": "GPS BIII-5  (PRN 11)", "group": "gps-ops", "lat": -20.057065581179973, "lon": 174.0929968116216, "alt_km": 20128.650740195888, "timestamp": "2025-12-25T19:00:39.609795+00:00", "meta": {"OBJECT_NAME": "GPS BIII-5  (PRN 11)", "OBJECT_ID": "2021-054A", "EPOCH": "2025-12-08T04:14:32.423424", "MEAN_MOTION": 2.00553627, "ECCENTRICITY": 0.0024678, "INCLINATION": 55.2581, "RA_OF_ASC_NODE": 340.1367, "ARG_OF_PERICENTER": 233.3993, "MEAN_ANOMALY": 212.8594, "EPHEMERIS_TYPE": 0, "CLASSIFICATION_TYPE": "U", "NORAD_CAT_ID": 48859, "ELEMENT_SET_NO": 999, "REV_AT_EPOCH": 3292, "BSTAR": 0, "MEAN_MOTION_DOT": -8.6e-07, "MEAN_MOTION_DDOT": 0}, "tle": {"line1": "1 48859U 21054A   25342.17676416 -.00000086  00000+0  00000+0 0  9993", "line2": "2 48859  55.2581 340.1367 0024678 233.3993 212.8594  2.00553627 32922"}}, "geometry": {"type": "Point", "coordinates": [174.0929968116216, -20.057065581179973]}}, {"type": "Feature", "properties": {"norad_id": 55268, "name": "GPS BIII-6  (PRN 28)", "group": "gps-ops", "lat": -49.16543670080639, "lon": 29.173696695953844, "alt_km": 20191.574854847106, "timestamp": "2025-12-25T19:00:39.609806+00:00", "meta": {"OBJECT_NAME": "GPS BIII-6  (PRN 28)", "OBJECT_ID": "2023-009A", "EPOCH": "2025-12-22T10:59:58.065216", "MEAN_MOTION": 2.00554901, "ECCENTRICITY": 0.00037047, "INCLINATION": 55.1065, "RA_OF_ASC_NODE": 155.4638, "ARG_OF_PERICENTER": 355.7912, "MEAN_ANOMALY": 4.4255, "EPHEMERIS_TYPE": 0, "CLASSIFICATION_TYPE": "U", "NORAD_CAT_ID": 55268, "ELEMENT_SET_NO": 999, "REV_AT_EPOCH": 2170, "BSTAR": 0, "MEAN_MOTION_DOT": 7.4e-07, "MEAN_MOTION_DDOT": 0}, "tle": {"line1": "1 55268U 23009A   25356.45831094  .00000074  00000+0  00000+0 0  9994", "line2": "2 55268  55.1065 155.4638 0003704 355.7912   4.4255  2.00554901 21704"}}, "geometry": {"type": "Point", "coordinates": [29.173696695953844, -49.16543670080639]}}]}